STARLETTE               
1 07646U 75010A   26032.90363791 -.00000110  00000+0  25406-4 0  9990
2 07646  49.8241 278.5900 0205553 336.1242  23.0221 13.82348640575821
LAGEOS 1                
1 08820U 76039A   26032.16576557 -.00000009  00000+0  00000+0 0  9996
2 08820 109.8261 132.7717 0044658 331.4019  56.5629  6.38664895904453
AJISAI (EGS)            
1 16908U 86061A   26032.90893567 -.00000112  00000+0 -10099-3 0  9992
2 16908  50.0065 203.3735 0011250 194.8782 280.8096 12.44515347463544
COSMOS 1989 (ETALON 1)  
1 19751U 89001C   26032.81063499  .00000010  00000+0  00000+0 0  9993
2 19751  64.8643  76.8261 0023417 217.4641 265.0795  2.13155981288487
COSMOS 2024 (ETALON 2)  
1 20026U 89039C   26032.23208601 -.00000059  00000+0  00000+0 0  9997
2 20026  65.0179 315.2212 0020461 213.7172 318.9190  2.13204420285602
LAGEOS 2                
1 22195U 92070B   26032.26943012 -.00000009  00000+0  00000+0 0  9995
2 22195  52.6810 352.5462 0137920 127.9064 338.9004  6.47293283786621
STELLA                  
1 22824U 93061B   26032.98065878 -.00000016  00000+0  11771-4 0  9999
2 22824  98.7920  96.6369 0005291 270.7679 148.4577 14.27466320685481
LARETS                  
1 27944U 03042F   26032.91282633  .00000082  00000+0  25321-4 0  9998
2 27944  98.3950 192.4082 0013504  97.7091 262.5645 14.63838135193571
LARES                   
1 38077U 12006A   26032.87739874 -.00000058  00000+0 -12195-3 0  9995
2 38077  69.4906 163.3674 0008822 186.2181 173.8738 12.54932160640097
LARES-2                 
1 53105U 22080A   26027.30321895 -.00000018  00000+0  00000+0 0  9992
2 53105  70.1796 353.6364 0005326   5.3418 354.7187  6.38964959 82669
