[{"OBJECT_NAME":"STARLETTE","OBJECT_ID":"1975-010A","EPOCH":"2026-02-01T21:41:14.315424","MEAN_MOTION":13.8234864,"ECCENTRICITY":0.02055533,"INCLINATION":49.8241,"RA_OF_ASC_NODE":278.59,"ARG_OF_PERICENTER":336.1242,"MEAN_ANOMALY":23.0221,"EPHEMERIS_TYPE":0,"CLASSIFICATION_TYPE":"U","NORAD_CAT_ID":7646,"ELEMENT_SET_NO":999,"REV_AT_EPOCH":57582,"BSTAR":2.5405672e-5,"MEAN_MOTION_DOT":-1.1e-6,"MEAN_MOTION_DDOT":0},{"OBJECT_NAME":"LAGEOS 1","OBJECT_ID":"1976-039A","EPOCH":"2026-02-01T03:58:42.145248","MEAN_MOTION":6.38664895,"ECCENTRICITY":0.00446584,"INCLINATION":109.8261,"RA_OF_ASC_NODE":132.7717,"ARG_OF_PERICENTER":331.4019,"MEAN_ANOMALY":56.5629,"EPHEMERIS_TYPE":0,"CLASSIFICATION_TYPE":"U","NORAD_CAT_ID":8820,"ELEMENT_SET_NO":999,"REV_AT_EPOCH":90445,"BSTAR":0,"MEAN_MOTION_DOT":-9.0e-8,"MEAN_MOTION_DDOT":0},{"OBJECT_NAME":"AJISAI (EGS)","OBJECT_ID":"1986-061A","EPOCH":"2026-02-01T21:48:52.041888","MEAN_MOTION":12.44515347,"ECCENTRICITY":0.00112503,"INCLINATION":50.0065,"RA_OF_ASC_NODE":203.3735,"ARG_OF_PERICENTER":194.8782,"MEAN_ANOMALY":280.8096,"EPHEMERIS_TYPE":0,"CLASSIFICATION_TYPE":"U","NORAD_CAT_ID":16908,"ELEMENT_SET_NO":999,"REV_AT_EPOCH":46354,"BSTAR":-0.00010099231,"MEAN_MOTION_DOT":-1.12e-6,"MEAN_MOTION_DDOT":0},{"OBJECT_NAME":"COSMOS 1989 (ETALON 1)","OBJECT_ID":"1989-001C","EPOCH":"2026-02-01T19:27:18.863136","MEAN_MOTION":2.13155981,"ECCENTRICITY":0.00234179,"INCLINATION":64.8643,"RA_OF_ASC_NODE":76.8261,"ARG_OF_PERICENTER":217.4641,"MEAN_ANOMALY":265.0795,"EPHEMERIS_TYPE":0,"CLASSIFICATION_TYPE":"U","NORAD_CAT_ID":19751,"ELEMENT_SET_NO":999,"REV_AT_EPOCH":28848,"BSTAR":0,"MEAN_MOTION_DOT":1.0e-7,"MEAN_MOTION_DDOT":0},{"OBJECT_NAME":"COSMOS 2024 (ETALON 2)","OBJECT_ID":"1989-039C","EPOCH":"2026-02-01T05:34:12.231264","MEAN_MOTION":2.1320442,"ECCENTRICITY":0.00204615,"INCLINATION":65.0179,"RA_OF_ASC_NODE":315.2212,"ARG_OF_PERICENTER":213.7172,"MEAN_ANOMALY":318.919,"EPHEMERIS_TYPE":0,"CLASSIFICATION_TYPE":"U","NORAD_CAT_ID":20026,"ELEMENT_SET_NO":999,"REV_AT_EPOCH":28560,"BSTAR":0,"MEAN_MOTION_DOT":-5.9e-7,"MEAN_MOTION_DDOT":0},{"OBJECT_NAME":"LAGEOS 2","OBJECT_ID":"1992-070B","EPOCH":"2026-02-01T06:27:58.762368","MEAN_MOTION":6.47293283,"ECCENTRICITY":0.013792,"INCLINATION":52.681,"RA_OF_ASC_NODE":352.5462,"ARG_OF_PERICENTER":127.9064,"MEAN_ANOMALY":338.9004,"EPHEMERIS_TYPE":0,"CLASSIFICATION_TYPE":"U","NORAD_CAT_ID":22195,"ELEMENT_SET_NO":999,"REV_AT_EPOCH":78662,"BSTAR":0,"MEAN_MOTION_DOT":-9.0e-8,"MEAN_MOTION_DDOT":0},{"OBJECT_NAME":"STELLA","OBJECT_ID":"1993-061B","EPOCH":"2026-02-01T23:32:08.918592","MEAN_MOTION":14.2746632,"ECCENTRICITY":0.00052917,"INCLINATION":98.792,"RA_OF_ASC_NODE":96.6369,"ARG_OF_PERICENTER":270.7679,"MEAN_ANOMALY":148.4577,"EPHEMERIS_TYPE":0,"CLASSIFICATION_TYPE":"U","NORAD_CAT_ID":22824,"ELEMENT_SET_NO":999,"REV_AT_EPOCH":68548,"BSTAR":1.1770581e-5,"MEAN_MOTION_DOT":-1.6e-7,"MEAN_MOTION_DDOT":0},{"OBJECT_NAME":"LARETS","OBJECT_ID":"2003-042F","EPOCH":"2026-02-01T21:54:28.194912","MEAN_MOTION":14.63838135,"ECCENTRICITY":0.00135049,"INCLINATION":98.395,"RA_OF_ASC_NODE":192.4082,"ARG_OF_PERICENTER":97.7091,"MEAN_ANOMALY":262.5645,"EPHEMERIS_TYPE":0,"CLASSIFICATION_TYPE":"U","NORAD_CAT_ID":27944,"ELEMENT_SET_NO":999,"REV_AT_EPOCH":19357,"BSTAR":2.532107e-5,"MEAN_MOTION_DOT":8.2e-7,"MEAN_MOTION_DDOT":0},{"OBJECT_NAME":"LARES","OBJECT_ID":"2012-006A","EPOCH":"2026-02-01T21:03:27.251136","MEAN_MOTION":12.5493216,"ECCENTRICITY":0.0008822,"INCLINATION":69.4906,"RA_OF_ASC_NODE":163.3674,"ARG_OF_PERICENTER":186.2181,"MEAN_ANOMALY":173.8738,"EPHEMERIS_TYPE":0,"CLASSIFICATION_TYPE":"U","NORAD_CAT_ID":38077,"ELEMENT_SET_NO":999,"REV_AT_EPOCH":64009,"BSTAR":-0.00012194644,"MEAN_MOTION_DOT":-5.8e-7,"MEAN_MOTION_DDOT":0},{"OBJECT_NAME":"LARES-2","OBJECT_ID":"2022-080A","EPOCH":"2026-01-27T07:16:38.117280","MEAN_MOTION":6.38964959,"ECCENTRICITY":0.00053263,"INCLINATION":70.1796,"RA_OF_ASC_NODE":353.6364,"ARG_OF_PERICENTER":5.3418,"MEAN_ANOMALY":354.7187,"EPHEMERIS_TYPE":0,"CLASSIFICATION_TYPE":"U","NORAD_CAT_ID":53105,"ELEMENT_SET_NO":999,"REV_AT_EPOCH":8266,"BSTAR":0,"MEAN_MOTION_DOT":-1.8e-7,"MEAN_MOTION_DDOT":0}]
